COSMOS 2425 (716)       
1 29670U 06062A   21276.00792632  .00000045  00000-0  00000-0 0  9994
2 29670  64.8193 251.8144 0024269 340.8714 247.5589  2.13115205114963
COSMOS 2433 (720)       
1 32275U 07052A   21276.39766847 -.00000063  00000-0  00000-0 0  9991
2 32275  66.0748  13.2030 0003559 209.8716 126.1641  2.13104266108483
COSMOS 2432 (719)       
1 32276U 07052B   21276.52170155 -.00000063  00000-0  00000-0 0  9998
2 32276  66.0880  13.2952 0007828 325.0526  55.1375  2.13103471108490
COSMOS 2434 (721)       
1 32393U 07065A   21276.42012174  .00000040  00000-0  00000-0 0  9991
2 32393  64.4377 250.2097 0000550 166.0907  75.8711  2.13103055107194
COSMOS 2436 (723)       
1 32395U 07065C   21276.21542860  .00000041  00000-0  00000-0 0  9991
2 32395  64.4465 250.2712 0014611 350.0976 230.8766  2.13102896107120
COSMOS 2456 (730)       
1 36111U 09070A   21276.14058396  .00000080  00000-0  00000-0 0  9990
2 36111  64.2921 129.8884 0002548 337.9482 218.7024  2.13099326 91855
COSMOS 2457 (733)       
1 36112U 09070B   21276.39083398  .00000082  00000-0  00000-0 0  9990
2 36112  64.2763 129.7618 0005882 152.8001   1.0717  2.13101481 91868
COSMOS 2459 (731)       
1 36400U 10007A   21276.22919100 -.00000064  00000-0  00000-0 0  9994
2 36400  65.9699  12.1188 0024696 349.5761  76.4282  2.13108724 90200
COSMOS 2461 (735)       
1 36401U 10007B   21276.22985580 -.00000064  00000-0  00000-0 0  9990
2 36401  65.9648  12.0830 0017976   9.5586  55.4978  2.13103608 90215
COSMOS 2460 (732)       
1 36402U 10007C   21276.18213911 -.00000064  00000-0  00000-0 0  9998
2 36402  65.9524  12.0393 0001957 160.8947 173.4581  2.13106524 90207
COSMOS 2464 (736)       
1 37139U 10041C   21276.33163612  .00000039  00000-0  00000-0 0  9994
2 37139  64.0371 249.4164 0027138   5.1849  29.0081  2.13100706 86277
COSMOS 2471 (701K)      
1 37372U 11009A   21276.47536399 -.00000063  00000-0  00000-0 0  9997
2 37372  65.9453  11.9582 0016481 226.0262 105.1098  2.13062334 82482
COSMOS 2476 (744)       
1 37867U 11064A   21276.24104881  .00000081  00000-0  00000-0 0  9998
2 37867  64.5872 131.1401 0019690 233.2322 303.7438  2.13101883 77209
COSMOS 2477 (745)       
1 37868U 11064B   21276.41679345  .00000082  00000-0  00000-0 0  9991
2 37868  64.5945 131.1966 0017087 233.9939 256.0844  2.13101756 77161
COSMOS 2475 (743)       
1 37869U 11064C   21276.53870450  .00000083  00000-0  00000-0 0  9996
2 37869  64.6011 131.1983 0020675 255.2495 286.1718  2.13102115 77172
COSMOS 2485 (747)       
1 39155U 13019A   21276.21319993  .00000080  00000-0  00000-0 0  9990
2 39155  64.7505 131.5124 0020315 228.6114 331.4738  2.13102026 65674
COSMOS 2492 (754)       
1 39620U 14012A   21276.41269161 -.00000064  00000-0  00000-0 0  9997
2 39620  65.8397  11.7485 0011027 320.4642  67.3479  2.13103210 58639
COSMOS 2500 (755)       
1 40001U 14032A   21276.50545685 -.00000063  00000-0  00000-0 0  9991
2 40001  65.7796  11.6265 0008029 193.3030 125.0336  2.13102387 56846
COSMOS 2501 (702K)      
1 40315U 14075A   21276.52945356  .00000038  00000-0  00000-0 0  9998
2 40315  63.7473 250.1763 0018696 213.6492 289.9150  2.13101360 53252
COSMOS 2514 (751)       
1 41330U 16008A   21276.41692037 -.00000064  00000-0  00000-0 0  9997
2 41330  65.5808  11.3851 0011360 205.3654 228.3920  2.13102839 44014
COSMOS 2516 (753)       
1 41554U 16032A   21276.28018501  .00000040  00000-0  00000-0 0  9998
2 41554  63.9730 250.3885 0015432 222.6660   3.8264  2.13107264 41610
COSMOS 2522 (752)       
1 42939U 17055A   21276.42373806  .00000040  00000-0  00000-0 0  9990
2 42939  64.2061 250.7024 0010026 247.6413 309.9459  2.13101961 31371
COSMOS 2527 (756)       
1 43508U 18053A   21276.32895672  .00000082  00000-0  00000-0 0  9997
2 43508  64.9159 131.4563 0006980 220.6060 296.3978  2.13102594 25668
COSMOS 2529 (757)       
1 43687U 18086A   21276.46247926  .00000040  00000-0  00000-0 0  9993
2 43687  64.4206 250.9488 0012181 266.5751 276.2973  2.13102088 22682
COSMOS 2534 (758)       
1 44299U 19030A   21276.34945090  .00000041  00000-0  00000-0 0  9998
2 44299  64.4915 250.8136 0014648 283.7003 307.2275  2.13101893 18328
COSMOS 2544 (759)       
1 44850U 19088A   21276.53938346  .00000084  00000-0  00000-0 0  9998
2 44850  64.9003 131.3071 0010317 258.0278 104.0643  2.13102276 14103
COSMOS 2545 (760)       
1 45358U 20018A   21276.38534688 -.00000065  00000-0  00000-0 0  9991
2 45358  64.9155  12.2053 0009356 236.1199 217.6749  2.13102717 12052
